{
    "CCSDS_OMM_VERS": "3.0",
    "COMMENT": "GENERATED VIA SPACE-TRACK.ORG API",
    "CREATION_DATE": "2025-05-22T22:46:20",
    "ORIGINATOR": "18 SPCS",
    "OBJECT_NAME": "BD-19",
    "OBJECT_ID": "2015-037B",
    "CENTER_NAME": "EARTH",
    "REF_FRAME": "TEME",
    "TIME_SYSTEM": "UTC",
    "MEAN_ELEMENT_THEORY": "SGP4",
    "EPOCH": "2025-05-22T03:22:10.601472",
    "MEAN_MOTION": "1.86253713",
    "ECCENTRICITY": "0.00036940",
    "INCLINATION": "55.2105",
    "RA_OF_ASC_NODE": "315.4672",
    "ARG_OF_PERICENTER": "25.9177",
    "MEAN_ANOMALY": "334.0988",
    "EPHEMERIS_TYPE": "0",
    "CLASSIFICATION_TYPE": "U",
    "NORAD_CAT_ID": "40749",
    "ELEMENT_SET_NO": "999",
    "REV_AT_EPOCH": "6682",
    "BSTAR": "0.00000000000000",
    "MEAN_MOTION_DOT": "-0.00000051",
    "MEAN_MOTION_DDOT": "0.0000000000000",
    "SEMIMAJOR_AXIS": "27903.920",
    "PERIOD": "773.139",
    "APOAPSIS": "21536.093",
    "PERIAPSIS": "21515.477",
    "OBJECT_TYPE": "PAYLOAD",
    "RCS_SIZE": "LARGE",
    "COUNTRY_CODE": "PRC",
    "LAUNCH_DATE": "2015-07-25",
    "SITE": "XSC",
    "DECAY_DATE": null,
    "FILE": "4736443",
    "GP_ID": "288163374",
    "TLE_LINE0": "0 BD-19",
    "TLE_LINE1": "1 40749U 15037B   25142.14040048 -.00000051  00000-0  00000+0 0  9991",
    "TLE_LINE2": "2 40749  55.2105 315.4672 0003694  25.9177 334.0988  1.86253713 66828"
}